STARLINK-31162          
1 58791U 24012E   26068.33510763 -.00000616  00000+0 -12838-4 0  9999
2 58791  43.0024 167.0956 0001906 282.4896  77.5743 15.27589946121186
FLOCK 4G-15             
1 62678U 25009BX  26068.71779869  .00012647  00000+0  47575-3 0  9991
2 62678  97.4054 151.1927 0003699 316.8208  43.2740 15.27266411121358
